[{"OBJECT_NAME":"STARLINK-6118","OBJECT_ID":"2023-090F","EPOCH":"2026-03-09T20:12:02.855808","MEAN_MOTION":15.02540093,"ECCENTRICITY":0.00010793,"INCLINATION":43.003,"RA_OF_ASC_NODE":274.0477,"ARG_OF_PERICENTER":269.9364,"MEAN_ANOMALY":90.1354,"EPHEMERIS_TYPE":0,"CLASSIFICATION_TYPE":"U","NORAD_CAT_ID":57106,"ELEMENT_SET_NO":999,"REV_AT_EPOCH":15043,"BSTAR":1.12463e-6,"MEAN_MOTION_DOT":-1.88e-6,"MEAN_MOTION_DDOT":0},{"OBJECT_NAME":"ARIANE 5 R\/B","OBJECT_ID":"2004-049H","EPOCH":"2026-03-09T21:39:04.642848","MEAN_MOTION":14.85266245,"ECCENTRICITY":0.00839202,"INCLINATION":98.2628,"RA_OF_ASC_NODE":237.3671,"ARG_OF_PERICENTER":351.2342,"MEAN_ANOMALY":8.7401,"EPHEMERIS_TYPE":0,"CLASSIFICATION_TYPE":"U","NORAD_CAT_ID":28499,"ELEMENT_SET_NO":999,"REV_AT_EPOCH":14582,"BSTAR":0.0001160231,"MEAN_MOTION_DOT":9.95e-6,"MEAN_MOTION_DDOT":0}]
